AMC-1 (GE-1)            
1 24315U 96054A   22323.48447269  .00000085  00000+0  00000+0 0  9996
2 24315   5.9839  71.8079 0003450 168.9280 221.2905  1.00273124 33231
AMC-3 (GE-3)            
1 24936U 97050A   22323.24493956 -.00000239  00000+0  00000+0 0  9992
2 24936   4.9208  77.9998 0003208 176.5534 179.9076  1.00271279 39338
ASTRA 1G                
1 25071U 97076A   22323.04785965  .00000135  00000+0  00000+0 0  9997
2 25071   6.5961  67.0756 0003660 174.3691 213.2913  1.00274790 91417
ASTRA 2A                
1 25462U 98050A   22323.41412677  .00000090  00000+0  00000+0 0  9992
2 25462   3.7882  83.8738 0003143 154.1340  26.7249  1.00272107 33247
AMC-4 (GE-4)            
1 25954U 99060A   22323.52639174  .00000108  00000+0  00000+0 0  9995
2 25954   1.9080  90.0186 0002717 161.6489 221.4944  1.00271631 30461
NSS-11 (AAP-1)          
1 26554U 00059A   22323.53254708  .00000045  00000+0  00000+0 0  9999
2 26554   0.0206  15.2604 0002650 249.8913 161.1319  1.00271422 28190
AMC-6 (GE-6)            
1 26580U 00067A   22323.59137244  .00000124  00000+0  00000+0 0  9996
2 26580   0.0159 316.0889 0002917 292.3815 244.0456  1.00272508 80820
ASTRA 2D                
1 26638U 00081A   22322.97699455  .00000148  00000+0  00000+0 0  9990
2 26638   7.6190  59.2403 0001842 199.9321 174.2219  1.00270103 39813
AMC-8 (GE-8)            
1 26639U 00081B   22323.52637913  .00000109  00000+0  00000+0 0  9991
2 26639   2.8352  86.8751 0001020  62.9540 323.2197  1.00271138 80246
ASTRA 2C                
1 26853U 01025A   22323.24485240 -.00000238  00000+0  00000+0 0  9995
2 26853   4.9450  77.8061 0003058 170.8430 185.3293  1.00271763 31941
ASTRA 3A                
1 27400U 02015B   22321.53334907 -.00000107  00000+0  00000+0 0  9992
2 27400   7.7133  58.1406 0001978 264.0614 197.3431  0.99774689 75603
NSS-7                   
1 27414U 02019A   22322.61009385 -.00000139  00000+0  00000+0 0  9995
2 27414   6.2587  70.0214 0002678 178.6070   8.6377  1.00271490 75461
NSS-6                   
1 27603U 02057A   22323.55100705  .00000129  00000+0  00000+0 0  9997
2 27603   1.9991  89.7953 0003707 156.1517 201.4752  1.00270444 72948
AMC-11 (GE-11)          
1 28252U 04017A   22323.48478788  .00000089  00000+0  00000+0 0  9992
2 28252   0.0251  24.1352 0002723 216.7290 221.1732  1.00272093 67798
AMC-15                  
1 28446U 04041A   22323.46251116 -.00000069  00000+0  00000+0 0  9995
2 28446   0.0227  11.6360 0002608 243.6007 224.7228  1.00272104 66233
NSS-10 (AMC-12)         
1 28526U 05003A   22323.46703588 -.00000229  00000+0  00000+0 0  9996
2 28526   3.1669  85.6524 0002938 146.6393 316.8962  1.00271218 40061
ASTRA 1KR               
1 29055U 06012A   22323.26306990  .00000140  00000+0  00000+0 0  9990
2 29055   0.0220 281.3960 0005259 316.0312 294.8103  1.00275066 32631
AMC-18                  
1 29644U 06054B   22323.45788355 -.00000196  00000+0  00000+0 0  9992
2 29644   0.0341  88.8769 0002436 149.8501 261.6095  1.00272099 58455
ASTRA 1L                
1 31306U 07016A   22323.26306990  .00000139  00000+0  00000+0 0  9995
2 31306   0.0457 322.8743 0004780 303.0072 266.3304  1.00267443 31919
ASTRA 4A (SIRIUS 4)     
1 32299U 07057A   22323.26019344  .00000052  00000+0  00000+0 0  9990
2 32299   0.0264  35.2072 0002857 205.9387 275.6387  1.00272232 38574
AMC-21                  
1 33275U 08038B   22323.49139762  .00000056  00000+0  00000+0 0  9991
2 33275   0.0511  87.1325 0002597 160.2730 223.1201  1.00271580 52379
ASTRA 1M                
1 33436U 08057A   22323.26306990  .00000139  00000+0  00000+0 0  9997
2 33436   0.0784  97.1095 0003441 102.5496 332.5452  1.00273042 32637
CIEL-2                  
1 33453U 08063A   22323.60312083  .00000078  00000+0  00000+0 0  9993
2 33453   0.0269 138.2640 0002925 103.9421 264.7079  1.00270286 51039
NSS-9                   
1 33749U 09008A   22323.54271388  .00000092  00000+0  00000+0 0  9992
2 33749   0.0257  25.8655 0002134 212.5288 198.6138  1.00272094 50434
SES-7 (PROTOSTAR 2)     
1 34941U 09027A   22323.59323895 -.00000325  00000+0  00000+0 0  9994
2 34941   0.0737  90.3011 0001922 161.6661 128.4866  1.00271585 49529
NSS-12                  
1 36032U 09058A   22323.41412677  .00000091  00000+0  00000+0 0  9998
2 36032   0.0538  90.6537 0002723 157.0119  16.8671  1.00271424 47821
SES-1                   
1 36516U 10016A   22323.52604656 -.00000095  00000+0  00000+0 0  9998
2 36516   0.0452  94.2246 0002524 146.7231 266.0025  1.00271974 46044
ASTRA 3B                
1 36581U 10021A   22323.19220478  .00000156  00000+0  00000+0 0  9992
2 36581   0.0447 352.4863 0003889 242.4315 276.0232  1.00269412 45781
SES-3                   
1 37748U 11035A   22323.46429649 -.00000082  00000+0  00000+0 0  9994
2 37748   0.0434  76.5727 0002792 169.6217 236.4546  1.00271923 41503
ASTRA 1N                
1 37775U 11041A   22323.26306990  .00000139  00000+0  00000+0 0  9994
2 37775   0.0889  65.0560 0001116 263.0926 204.0812  1.00273442 31436
SES-2                   
1 37809U 11049A   22323.45709907 -.00000177  00000+0  00000+0 0  9999
2 37809   0.0207  22.5024 0002602 220.4688 253.0861  1.00272828 40901
QUETZSAT 1              
1 37826U 11054A   22323.38736711 -.00000222  00000+0  00000+0 0  9990
2 37826   0.0491  89.5110 0002740 142.0024 249.3673  1.00272285 36798
SES-4                   
1 38087U 12007A   22323.39834990 -.00000148  00000+0  00000+0 0  9995
2 38087   0.0159 345.1662 0002458 261.9120 292.7590  1.00273086 39148
SES-5                   
1 38652U 12036A   22323.54714047  .00000054  00000+0  00000+0 0  9997
2 38652   0.0594 293.3598 0001996 307.4228  19.7506  1.00272039 37972
ASTRA 2F                
1 38778U 12051A   22323.55184738  .00000170  00000+0  00000+0 0  9991
2 38778   0.0656 249.3190 0004453 340.7255  55.4073  1.00269877 37196
SES-6                   
1 39172U 13026A   22323.39468897 -.00000241  00000+0  00000+0 0  9996
2 39172   0.0184 339.5987 0002284 263.5652 276.8663  1.00271721 34631
O3B FM5                 
1 39188U 13031A   22323.19250175 -.00000012  00000+0  00000+0 0  9991
2 39188   0.0659  12.0538 0002770 231.2758 116.6490  5.00115378171707
O3B FM4                 
1 39189U 13031B   22323.04857395 -.00000012  00000+0  00000+0 0  9993
2 39189   0.0443 353.1293 0002719 249.7370 117.1129  5.00115882171809
O3B FM2                 
1 39190U 13031C   22323.14004497 -.00000012  00000+0  00000+0 0  9993
2 39190   0.0421 347.0150 0002722 254.3718 118.5928  5.00115102171776
O3B PFM                 
1 39191U 13031D   22323.36619160 -.00000011  00000+0  00000+0 0  9996
2 39191   0.0575   8.7710 0002727 230.3439 120.8653  5.00115759171341
ASTRA 2E                
1 39285U 13056A   22323.19316361  .00000169  00000+0  00000+0 0  9998
2 39285   0.0678 330.0630 0002359 267.0404 279.1716  1.00273262 33346
SES-8                   
1 39460U 13071A   22323.27814942 -.00000251  00000+0  00000+0 0  9990
2 39460   0.0154 258.7003 0000853 332.5359  22.2244  1.00271836 31339
ASTRA 5B                
1 39617U 14011B   22323.19368659  .00000174  00000+0  00000+0 0  9992
2 39617   0.0632 307.0713 0004061 279.0286 293.3708  1.00271478 31573
O3B FM3                 
1 40079U 14038A   22322.42154820 -.00000013  00000+0  00000+0 0  9996
2 40079   0.0502 359.4774 0004623 214.1293 146.3706  5.00115381147660
O3B FM7                 
1 40080U 14038B   22323.16717819 -.00000012  00000+0  00000+0 0  9992
2 40080   0.0504 354.3366 0002523 286.6081  79.0340  5.00115526152530
O3B FM6                 
1 40081U 14038C   22322.99367851 -.00000012  00000+0  00000+0 0  9990
2 40081   0.0490 359.4803 0002791 239.5736 120.9257  5.00115314152480
O3B FM8                 
1 40082U 14038D   22323.04756312 -.00000012  00000+0  00000+0 0  9992
2 40082   0.0461 357.7839 0002666 238.4478 123.7498  5.00115707152609
O3B FM10                
1 40348U 14083A   22323.27357621 -.00000011  00000+0  00000+0 0  9991
2 40348   0.0525   9.0725 0002700 229.4345 121.4737  5.00115134144569
O3B FM11                
1 40349U 14083B   22322.68732999 -.00000013  00000+0  00000+0 0  9993
2 40349   0.0561   5.8527 0002858 246.7010 107.4218  5.00115414144557
O3B FM12                
1 40350U 14083C   22323.11433468 -.00000012  00000+0  00000+0 0  9992
2 40350   0.0551   5.6822 0002888 235.5371 118.7587  5.00115275144585
O3B FM9                 
1 40351U 14083D   22322.94122863 -.00000012  00000+0  00000+0 0  9997
2 40351   0.0572   5.4210 0002697 234.2716 120.2877  5.00116079144724
ASTRA 2G                
1 40364U 14089A   22323.19316361  .00000169  00000+0  00000+0 0  9995
2 40364   0.0506  50.5346 0001047 351.2543 114.2107  1.00272866 28871
SES-9                   
1 41380U 16013A   22323.42432505 -.00000326  00000+0  00000+0 0  9994
2 41380   0.0182 294.8590 0000703 226.3885 158.2703  1.00271148 24343
SES-10                  
1 42432U 17017A   22323.24589838 -.00000253  00000+0  00000+0 0  9999
2 42432   0.0134 359.5792 0002863 248.9806 191.3511  1.00272113 20641
SES-15                  
1 42709U 17026A   22323.43228319  .00000080  00000+0  00000+0 0  9998
2 42709   0.0212 349.2067 0000209 283.2395 172.4884  1.00265289 21058
SES-11 (ECHOSTAR 105)   
1 42967U 17063A   22323.46251174 -.00000070  00000+0  00000+0 0  9993
2 42967   0.0236 289.6882 0002731 313.7013 236.6663  1.00272178 18633
SES-14                  
1 43175U 18012B   22323.39329433 -.00000258  00000+0  00000+0 0  9994
2 43175   0.0168 304.2745 0001106 292.6506 275.5930  1.00273095 17961
O3B FM15                
1 43231U 18024A   22323.40695277 -.00000011  00000+0  00000+0 0  9991
2 43231   0.0502  12.0615 0003046 228.3202 119.5950  5.00116136 85702
O3B FM16                
1 43232U 18024B   22323.46036231 -.00000011  00000+0  00000+0 0  9997
2 43232   0.0487  16.5744 0003033 224.4121 118.9902  5.00115942 85614
O3B FM14                
1 43233U 18024C   22323.30018196 -.00000011  00000+0  00000+0 0  9991
2 43233   0.0476  17.8934 0002934 226.0414 116.0420  5.00115355 85623
O3B FM13                
1 43234U 18024D   22323.35371198 -.00000011  00000+0  00000+0 0  9991
2 43234   0.0600  11.1711 0003861 230.8689 117.9280  5.00115311 85749
SES-12                  
1 43488U 18049A   22320.58775056 -.00000256  00000+0  00000+0 0  9993
2 43488   0.0426  83.5080 0002583 176.0345 102.7086  1.00270423 16290
O3B FM20                
1 44112U 19020A   22323.32687531 -.00000011  00000+0  00000+0 0  9992
2 44112   0.0518   8.7076 0003312 236.5719 114.6931  5.00115463 66246
O3B FM19                
1 44113U 19020B   22321.35481454 -.00000016  00000+0  00000+0 0  9995
2 44113   0.0750  12.4113 0002176 254.2659  93.3043  5.00115220 66019
O3B FM17                
1 44114U 19020C   22322.83449493 -.00000012  00000+0  00000+0 0  9993
2 44114   0.0322   8.6248 0003166 230.8717 120.4791  5.00115670 66174
O3B FM18                
1 44115U 19020D   22323.18077318 -.00000012  00000+0  00000+0 0  9996
2 44115   0.0522   8.7645 0002954 230.0722 121.1413  5.00115789 66317
SES-17                  
1 49332U 21095A   22322.08425010 -.00000255  00000+0  00000+0 0  9990
2 49332   0.0069 322.3841 0001072 278.0812 139.8971  1.00269549  4737
SES-22                  
1 52933U 22071A   22323.47976528  .00000108  00000+0  00000+0 0  9991
2 52933   0.0113 307.1004 0002542 296.5382 212.6023  1.00273340  1469
